NORAD_CAT_ID,OBJECT_NAME,OBJECT_TYPE,EPOCH,MEAN_MOTION,ECCENTRICITY,INCLINATION,RA_OF_ASC_NODE,ARG_OF_PERICENTER,MEAN_ANOMALY,BSTAR,MEAN_MOTION_DOT,MEAN_MOTION_DDOT,TLE_LINE0,TLE_LINE1,TLE_LINE2,SEMIMAJOR_AXIS,PERIOD,APOGEE,PERIGEE,DECAYED
52986.0,STARLINK-4260,PAYLOAD,2023-02-05 21:47:31,15.08848238,0.0001089,53.2157,116.9295,87.6912,272.4204,7.0744e-05,8.39e-06,0.0,0 STARLINK-4260,1 52986U 22076A   23036.90800828  .00000839  00000-0  70744-4 0  9992,2 52986  53.2157 116.9295 0001089  87.6912 272.4204 15.08848238 32585,6917.855,95.437,540.474,538.967,0.0
52986.0,STARLINK-4260,PAYLOAD,2023-02-06 12:05:59,15.0885573,0.0001123,53.2154,114.2531,89.7298,270.3823,0.00023702,3.488e-05,0.0,0 STARLINK-4260,1 52986U 22076A   23037.50416359  .00003488  00000-0  23702-3 0  9995,2 52986  53.2154 114.2531 0001123  89.7298 270.3823 15.08855730 32674,6917.832,95.437,540.474,538.92,0.0
52986.0,STARLINK-4260,PAYLOAD,2023-02-07 05:35:14,15.08848157,0.0001069,53.2149,110.9835,83.0869,277.0245,0.00014647,2.045e-05,0.0,0 STARLINK-4260,1 52986U 22076A   23038.23280285  .00002045  00000-0  14647-3 0  9999,2 52986  53.2149 110.9835 0001069  83.0869 277.0245 15.08848157 33250,6917.855,95.437,540.46,538.981,0.0
52986.0,STARLINK-4260,PAYLOAD,2023-02-07 10:21:23,15.08856726,0.000105,53.2148,110.0913,82.5865,277.5246,0.00039325,5.979e-05,0.0,0 STARLINK-4260,1 52986U 22076A   23038.43151936  .00005979  00000-0  39325-3 0  9990,2 52986  53.2148 110.0913 0001050  82.5865 277.5246 15.08856726 32815,6917.829,95.436,540.421,538.968,0.0
52986.0,STARLINK-4260,PAYLOAD,2023-02-07 21:29:05,15.08848258,9.87e-05,53.2148,108.009,89.5297,270.5808,0.00025431,3.763e-05,0.0,0 STARLINK-4260,1 52986U 22076A   23038.89519868  .00003763  00000-0  25431-3 0  9994,2 52986  53.2148 108.0090 0000987  89.5297 270.5808 15.08848258 32887,6917.855,95.437,540.403,539.037,0.0
52986.0,STARLINK-4260,PAYLOAD,2023-02-08 07:01:24,15.08835094,0.0001304,53.2142,106.2258,102.0144,258.0994,-8.1467e-05,-1.584e-05,0.0,0 STARLINK-4260,1 52986U 22076A   23039.29264270 -.00001584  00000-0 -81467-4 0  9996,2 52986  53.2142 106.2258 0001304 102.0144 258.0994 15.08835094 33414,6917.895,95.438,540.662,538.858,0.0
52986.0,STARLINK-4260,PAYLOAD,2023-02-08 11:47:33,15.08847692,0.0001189,53.2145,105.3333,104.7321,255.3803,0.00075022,0.00011674,0.0,0 STARLINK-4260,1 52986U 22076A   23039.49136070  .00011674  00000-0  75022-3 0  9992,2 52986  53.2145 105.3333 0001189 104.7321 255.3803 15.08847692 32974,6917.857,95.437,540.544,538.899,0.0
52986.0,STARLINK-4260,PAYLOAD,2023-02-09 03:41:25,15.08837796,0.0001272,53.2149,102.3609,102.9648,257.1486,0.00040166,6.11e-05,0.0,0 STARLINK-4260,1 52986U 22076A   23040.15376657  .00006110  00000-0  40166-3 0  9994,2 52986  53.2149 102.3609 0001272 102.9648 257.1486 15.08837796 33541,6917.887,95.438,540.632,538.872,0.0
52986.0,STARLINK-4260,PAYLOAD,2023-02-09 11:38:21,15.08835019,0.0001339,53.2141,100.8733,75.5534,284.5607,0.0018329,0.00028999,0.0,0 STARLINK-4260,1 52986U 22076A   23040.48497140  .00028999  00000-0  18329-2 0  9995,2 52986  53.2141 100.8733 0001339  75.5534 284.5607 15.08835019 33126,6917.896,95.438,540.687,538.834,0.0
52986.0,STARLINK-4260,PAYLOAD,2023-02-09 21:10:40,15.08840251,0.0001591,53.2148,99.0918,70.0645,290.0519,0.0014854,0.00023431,0.0,0 STARLINK-4260,1 52986U 22076A   23040.88241555  .00023431  00000-0  14854-2 0  9991,2 52986  53.2148  99.0918 0001591  70.0645 290.0519 15.08840251 33656,6917.88,95.438,540.845,538.644,0.0
52986.0,STARLINK-4260,PAYLOAD,2023-02-10 03:32:13,15.08834252,0.0001489,53.2143,97.9001,78.7563,281.3596,0.00062986,9.749e-05,0.0,0 STARLINK-4260,1 52986U 22076A   23041.14737698  .00009749  00000-0  62986-3 0  9995,2 52986  53.2143  97.9001 0001489  78.7563 281.3596 15.08834252 33226,6917.898,95.438,540.793,538.733,0.0
52986.0,STARLINK-4260,PAYLOAD,2023-02-10 11:29:08,15.08854852,0.0001514,53.2139,96.4126,80.8373,279.279,0.001183,0.00018597,0.0,0 STARLINK-4260,1 52986U 22076A   23041.47857381  .00018597  00000-0  11830-2 0  9995,2 52986  53.2139  96.4126 0001514  80.8373 279.2790 15.08854852 33742,6917.835,95.437,540.747,538.653,0.0
52986.0,STARLINK-4260,PAYLOAD,2023-02-10 21:01:27,15.08849376,0.000155,53.2145,94.6259,95.956,264.1608,0.00077591,0.00012085,0.0,0 STARLINK-4260,1 52986U 22076A   23041.87601408  .00012085  00000-0  77591-3 0  9999,2 52986  53.2145  94.6259 0001550  95.9560 264.1608 15.08849376 33332,6917.852,95.437,540.789,538.644,0.0
52986.0,STARLINK-4260,PAYLOAD,2023-02-11 06:33:46,15.08848971,0.0001622,53.2146,92.8388,117.2779,242.8379,0.00049695,7.632e-05,0.0,0 STARLINK-4260,1 52986U 22076A   23042.27345195  .00007632  00000-0  49695-3 0  9998,2 52986  53.2146  92.8388 0001622 117.2779 242.8379 15.08848971 33390,6917.853,95.437,540.84,538.596,0.0
52986.0,STARLINK-4260,PAYLOAD,2023-02-11 09:44:32,15.0884924,0.0001417,53.2159,92.2441,117.3545,242.7591,0.0004394,6.714e-05,0.0,0 STARLINK-4260,1 52986U 22076A   23042.40593121  .00006714  00000-0  43940-3 0  9994,2 52986  53.2159  92.2441 0001417 117.3545 242.7591 15.08849240 33410,6917.852,95.437,540.697,538.737,0.0
52986.0,STARLINK-4260,PAYLOAD,2023-02-11 22:27:37,15.08845816,0.0001297,53.2156,89.8717,84.3604,275.7536,0.00024749,3.654e-05,0.0,0 STARLINK-4260,1 52986U 22076A   23042.93585299  .00003654  00000-0  24749-3 0  9995,2 52986  53.2156  89.8717 0001297  84.3604 275.7536 15.08845816 33960,6917.863,95.437,540.625,538.83,0.0
52986.0,STARLINK-4260,PAYLOAD,2023-02-12 12:46:06,15.08842523,0.0001482,53.2135,87.1918,86.8229,273.2933,0.0002968,4.439e-05,0.0,0 STARLINK-4260,1 52986U 22076A   23043.53201507  .00004439  00000-0  29680-3 0  9990,2 52986  53.2135  87.1918 0001482  86.8229 273.2933 15.08842523 34054,6917.873,95.437,540.763,538.712,0.0
52986.0,STARLINK-4260,PAYLOAD,2023-02-13 03:04:34,15.08832116,8e-05,53.2171,84.5161,77.0324,283.0757,6.5772e-05,7.59e-06,0.0,0 STARLINK-4260,1 52986U 22076A   23044.12817957  .00000759  00000-0  65772-4 0  9992,2 52986  53.2171  84.5161 0000800  77.0324 283.0757 15.08832116 34146,6917.904,95.438,540.323,539.216,0.0
52986.0,STARLINK-4260,PAYLOAD,2023-02-13 12:36:53,15.0884464,0.0001441,53.2156,82.7305,89.4206,270.6951,0.00042285,6.449e-05,0.0,0 STARLINK-4260,1 52986U 22076A   23044.52561647  .00006449  00000-0  42285-3 0  9993,2 52986  53.2156  82.7305 0001441  89.4206 270.6951 15.08844640 34207,6917.866,95.437,540.728,538.734,0.0
52986.0,STARLINK-4260,PAYLOAD,2023-02-14 02:55:21,15.08831696,0.0001099,53.2156,80.056,91.3007,268.8111,2.9476e-05,1.81e-06,0.0,0 STARLINK-4260,1 52986U 22076A   23045.12178153  .00000181  00000-0  29476-4 0  9991,2 52986  53.2156  80.0560 0001099  91.3007 268.8111 15.08831696 34294,6917.906,95.438,540.531,539.01,0.0
52986.0,STARLINK-4260,PAYLOAD,2023-02-14 09:16:54,15.08840426,6.56e-05,53.2152,78.8651,66.5578,293.5483,0.0001847,2.653e-05,0.0,0 STARLINK-4260,1 52986U 22076A   23045.38673852  .00002653  00000-0  18470-3 0  9992,2 52986  53.2152  78.8651 0000656  66.5578 293.5483 15.08840426 34334,6917.879,95.438,540.198,539.29,0.0
52986.0,STARLINK-4260,PAYLOAD,2023-02-14 18:49:12,15.08842527,6.94e-05,53.216,77.0812,68.5221,291.5845,0.00015924,2.248e-05,0.0,0 STARLINK-4260,1 52986U 22076A   23045.78417728  .00002248  00000-0  15924-3 0  9995,2 52986  53.2160  77.0812 0000694  68.5221 291.5845 15.08842527 33920,6917.873,95.437,540.218,539.258,0.0
52986.0,STARLINK-4260,PAYLOAD,2023-02-15 10:43:04,15.08852273,0.0001124,53.215,74.1082,105.6038,254.5078,0.00030332,4.544e-05,0.0,0 STARLINK-4260,1 52986U 22076A   23046.44657571  .00004544  00000-0  30332-3 0  9992,2 52986  53.2150  74.1082 0001124 105.6038 254.5078 15.08852273 34493,6917.843,95.437,540.485,538.93,0.0
52986.0,STARLINK-4260,PAYLOAD,2023-02-15 20:15:23,15.0884862,0.0001309,53.2138,72.3229,88.8747,271.2395,0.00028211,4.206e-05,0.0,0 STARLINK-4260,1 52986U 22076A   23046.84401691  .00004206  00000-0  28211-3 0  9994,2 52986  53.2138  72.3229 0001309  88.8747 271.2395 15.08848620 34080,6917.854,95.437,540.625,538.813,0.0
52986.0,STARLINK-4260,PAYLOAD,2023-02-16 10:33:50,15.08857054,9.35e-05,53.2146,69.6464,71.1882,288.9212,0.0002797,4.168e-05,0.0,0 STARLINK-4260,1 52986U 22076A   23047.44016952  .00004168  00000-0  27970-3 0  9991,2 52986  53.2146  69.6464 0000935  71.1882 288.9212 15.08857054 34172,6917.828,95.436,540.34,539.046,0.0
52986.0,STARLINK-4260,PAYLOAD,2023-02-16 18:30:47,15.08836173,0.0001145,53.2146,68.1625,96.7525,263.3597,1.3686e-05,-7e-07,0.0,0 STARLINK-4260,1 52986U 22076A   23047.77137999 -.00000070  00000-0  13686-4 0  9991,2 52986  53.2146  68.1625 0001145  96.7525 263.3597 15.08836173 34224,6917.892,95.438,540.549,538.965,0.0
52986.0,STARLINK-4260,PAYLOAD,2023-02-17 00:52:20,15.08826253,0.000161,53.2145,66.9724,92.1681,267.9495,-0.00020126,-3.488e-05,0.0,0 STARLINK-4260,1 52986U 22076A   23048.03634516 -.00003488  00000-0 -20126-3 0  9991,2 52986  53.2145  66.9724 0001610  92.1681 267.9495 15.08826253 34730,6917.922,95.438,540.901,538.674,0.0
52986.0,STARLINK-4260,PAYLOAD,2023-02-17 10:24:39,15.08823556,0.0001352,53.2149,65.1869,99.4007,260.7138,-0.00017061,-3.001e-05,0.0,0 STARLINK-4260,1 52986U 22076A   23048.43378807 -.00003001  00000-0 -17061-3 0  9998,2 52986  53.2149  65.1869 0001352  99.4007 260.7138 15.08823556 34323,6917.931,95.439,540.731,538.86,0.0
52986.0,STARLINK-4260,PAYLOAD,2023-02-18 07:04:40,15.08838923,0.0001575,53.2146,61.321,95.3076,264.8096,0.00093268,0.00014586,0.0,0 STARLINK-4260,1 52986U 22076A   23049.29491733  .00014586  00000-0  93268-3 0  9998,2 52986  53.2146  61.3210 0001575  95.3076 264.8096 15.08838923 34924,6917.884,95.438,540.838,538.659,0.0
52986.0,STARLINK-4260,PAYLOAD,2023-02-19 11:41:36,15.08869425,0.0001649,53.215,55.9673,93.5486,266.5694,0.00091697,0.00014347,0.0,0 STARLINK-4260,1 52986U 22076A   23050.48722674  .00014347  00000-0  91697-3 0  9991,2 52986  53.2150  55.9673 0001649  93.5486 266.5694 15.08869425 35103,6917.79,95.436,540.796,538.515,0.0
